[{"OBJECT_NAME":"STARLINK-4649","OBJECT_ID":"2022-114P","EPOCH":"2026-03-09T23:14:08.042496","MEAN_MOTION":15.0883751,"ECCENTRICITY":0.00013192,"INCLINATION":53.2183,"RA_OF_ASC_NODE":302.8571,"ARG_OF_PERICENTER":79.5962,"MEAN_ANOMALY":280.5179,"EPHEMERIS_TYPE":0,"CLASSIFICATION_TYPE":"U","NORAD_CAT_ID":53831,"ELEMENT_SET_NO":999,"REV_AT_EPOCH":19287,"BSTAR":1.0768866e-5,"MEAN_MOTION_DOT":-1.17e-6,"MEAN_MOTION_DDOT":0},{"OBJECT_NAME":"SEDSAT 1 (SO-33)","OBJECT_ID":"1998-061B","EPOCH":"2026-03-09T01:12:01.146528","MEAN_MOTION":14.33274004,"ECCENTRICITY":0.03368459,"INCLINATION":31.4338,"RA_OF_ASC_NODE":325.4833,"ARG_OF_PERICENTER":271.633,"MEAN_ANOMALY":84.5745,"EPHEMERIS_TYPE":0,"CLASSIFICATION_TYPE":"U","NORAD_CAT_ID":25509,"ELEMENT_SET_NO":999,"REV_AT_EPOCH":43145,"BSTAR":6.9265016e-5,"MEAN_MOTION_DOT":4.4e-6,"MEAN_MOTION_DDOT":0}]
